{"type": "FeatureCollection", "features": [ {"type": "Feature", "properties": {"norad_id": 34529, "name": "IRIDIUM 33 DEB", "group": "iridium-33-debris", "lat": 34.87861874129847, "lon": -147.53781217339898, "alt_km": 751.2093875460005, "timestamp": "2025-12-13T16:48:33.094685+00:00", "meta": {"OBJECT_NAME": "IRIDIUM 33 DEB", "OBJECT_ID": "1997-051HW", "EPOCH": "2025-12-12T21:48:04.696416", "MEAN_MOTION": 14.40616063, "ECCENTRICITY": 0.00048321, "INCLINATION": 86.3641, "RA_OF_ASC_NODE": 35.34, "ARG_OF_PERICENTER": 176.2379, "MEAN_ANOMALY": 183.8857, "EPHEMERIS_TYPE": 0, "CLASSIFICATION_TYPE": "U", "NORAD_CAT_ID": 34529, "ELEMENT_SET_NO": 999, "REV_AT_EPOCH": 88144, "BSTAR": 0.00017131661, "MEAN_MOTION_DOT": 5.66e-06, "MEAN_MOTION_DDOT": 0}, "tle": {"line1": "1 34529U 97051HW  25346.90838769  .00000566  00000+0  17132-3 0  9998", "line2": "2 34529  86.3641  35.3400 0004832 176.2379 183.8857 14.40616063881446"}}, "geometry": {"type": "Point", "coordinates": [-147.53781217339898, 34.87861874129847]}}, {"type": "Feature", "properties": {"norad_id": 34538, "name": "IRIDIUM 33 DEB", "group": "iridium-33-debris", "lat": -10.854742422008083, "lon": 4.419999933012663, "alt_km": 732.7959580959141, "timestamp": "2025-12-13T16:48:33.094696+00:00", "meta": {"OBJECT_NAME": "IRIDIUM 33 DEB", "OBJECT_ID": "1997-051JF", "EPOCH": "2025-12-12T19:29:58.055136", "MEAN_MOTION": 14.42648871, "ECCENTRICITY": 0.0032777, "INCLINATION": 86.2773, "RA_OF_ASC_NODE": 5.524, "ARG_OF_PERICENTER": 327.8022, "MEAN_ANOMALY": 92.8362, "EPHEMERIS_TYPE": 0, "CLASSIFICATION_TYPE": "U", "NORAD_CAT_ID": 34538, "ELEMENT_SET_NO": 999, "REV_AT_EPOCH": 87757, "BSTAR": 0.0014020322, "MEAN_MOTION_DOT": 4.708e-05, "MEAN_MOTION_DDOT": 0}, "tle": {"line1": "1 34538U 97051JF  25346.81247749  .00004708  00000+0  14020-2 0  9994", "line2": "2 34538  86.2773   5.5240 0032777 327.8022  92.8362 14.42648871877573"}}, "geometry": {"type": "Point", "coordinates": [4.419999933012663, -10.854742422008083]}}, {"type": "Feature", "properties": {"norad_id": 34540, "name": "IRIDIUM 33 DEB", "group": "iridium-33-debris", "lat": 19.7489004201147, "lon": 125.84038013137528, "alt_km": 632.750709145299, "timestamp": "2025-12-13T16:48:33.094706+00:00", "meta": {"OBJECT_NAME": "IRIDIUM 33 DEB", "OBJECT_ID": "1997-051JH", "EPOCH": "2025-12-12T16:27:37.491840", "MEAN_MOTION": 14.75322014, "ECCENTRICITY": 0.00164195, "INCLINATION": 86.3102, "RA_OF_ASC_NODE": 307.6317, "ARG_OF_PERICENTER": 159.2955, "MEAN_ANOMALY": 15.9185, "EPHEMERIS_TYPE": 0, "CLASSIFICATION_TYPE": "U", "NORAD_CAT_ID": 34540, "ELEMENT_SET_NO": 999, "REV_AT_EPOCH": 89020, "BSTAR": 0.0023425707, "MEAN_MOTION_DOT": 0.0001595, "MEAN_MOTION_DDOT": 0}, "tle": {"line1": "1 34540U 97051JH  25346.68585060  .00015950  00000+0  23426-2 0  9994", "line2": "2 34540  86.3102 307.6317 0016419 159.2955  15.9185 14.75322014890209"}}, "geometry": {"type": "Point", "coordinates": [125.84038013137528, 19.7489004201147]}}, {"type": "Feature", "properties": {"norad_id": 34648, "name": "IRIDIUM 33 DEB", "group": "iridium-33-debris", "lat": 85.61251901817788, "lon": -23.080399707490535, "alt_km": 962.3443580353924, "timestamp": "2025-12-13T16:48:33.094716+00:00", "meta": {"OBJECT_NAME": "IRIDIUM 33 DEB", "OBJECT_ID": "1997-051JZ", "EPOCH": "2025-12-12T06:21:55.340640", "MEAN_MOTION": 14.11481969, "ECCENTRICITY": 0.01828059, "INCLINATION": 86.3902, "RA_OF_ASC_NODE": 282.138, "ARG_OF_PERICENTER": 300.3991, "MEAN_ANOMALY": 57.9233, "EPHEMERIS_TYPE": 0, "CLASSIFICATION_TYPE": "U", "NORAD_CAT_ID": 34648, "ELEMENT_SET_NO": 999, "REV_AT_EPOCH": 84954, "BSTAR": 0.010984589, "MEAN_MOTION_DOT": 0.00023366, "MEAN_MOTION_DDOT": 0}, "tle": {"line1": "1 34648U 97051JZ  25346.26522385  .00023366  00000+0  10985-1 0  9993", "line2": "2 34648  86.3902 282.1380 0182805 300.3991  57.9233 14.11481969849541"}}, "geometry": {"type": "Point", "coordinates": [-23.080399707490535, 85.61251901817788]}}, {"type": "Feature", "properties": {"norad_id": 34651, "name": "IRIDIUM 33 DEB", "group": "iridium-33-debris", "lat": -13.493515350702966, "lon": -38.93748077101815, "alt_km": 709.0420563541284, "timestamp": "2025-12-13T16:48:33.094727+00:00", "meta": {"OBJECT_NAME": "IRIDIUM 33 DEB", "OBJECT_ID": "1997-051KC", "EPOCH": "2025-12-12T09:35:00.604320", "MEAN_MOTION": 14.25811069, "ECCENTRICITY": 0.01420847, "INCLINATION": 86.2833, "RA_OF_ASC_NODE": 140.7223, "ARG_OF_PERICENTER": 205.011, "MEAN_ANOMALY": 154.4154, "EPHEMERIS_TYPE": 0, "CLASSIFICATION_TYPE": "U", "NORAD_CAT_ID": 34651, "ELEMENT_SET_NO": 999, "REV_AT_EPOCH": 85891, "BSTAR": 0.0048807652, "MEAN_MOTION_DOT": 0.00012929, "MEAN_MOTION_DDOT": 0}, "tle": {"line1": "1 34651U 97051KC  25346.39931255  .00012929  00000+0  48808-2 0  9990", "line2": "2 34651  86.2833 140.7223 0142084 205.0110 154.4154 14.25811069858910"}}, "geometry": {"type": "Point", "coordinates": [-38.93748077101815, -13.493515350702966]}}, {"type": "Feature", "properties": {"norad_id": 34652, "name": "IRIDIUM 33 DEB", "group": "iridium-33-debris", "lat": 9.978673644891789, "lon": -19.779028062654927, "alt_km": 683.3885696058733, "timestamp": "2025-12-13T16:48:33.094737+00:00", "meta": {"OBJECT_NAME": "IRIDIUM 33 DEB", "OBJECT_ID": "1997-051KD", "EPOCH": "2025-12-11T23:57:08.973792", "MEAN_MOTION": 14.62047586, "ECCENTRICITY": 0.0025954, "INCLINATION": 86.3316, "RA_OF_ASC_NODE": 340.3318, "ARG_OF_PERICENTER": 300.945, "MEAN_ANOMALY": 114.4446, "EPHEMERIS_TYPE": 0, "CLASSIFICATION_TYPE": "U", "NORAD_CAT_ID": 34652, "ELEMENT_SET_NO": 999, "REV_AT_EPOCH": 88473, "BSTAR": 0.0015132, "MEAN_MOTION_DOT": 7.652e-05, "MEAN_MOTION_DDOT": 0}, "tle": {"line1": "1 34652U 97051KD  25345.99802053  .00007652  00000+0  15132-2 0  9990", "line2": "2 34652  86.3316 340.3318 0025954 300.9450 114.4446 14.62047586884734"}}, "geometry": {"type": "Point", "coordinates": [-19.779028062654927, 9.978673644891789]}}, {"type": "Feature", "properties": {"norad_id": 34690, "name": "IRIDIUM 33 DEB", "group": "iridium-33-debris", "lat": -28.678551361043763, "lon": -141.44091354653995, "alt_km": 722.6762616374072, "timestamp": "2025-12-13T16:48:33.094747+00:00", "meta": {"OBJECT_NAME": "IRIDIUM 33 DEB", "OBJECT_ID": "1997-051KM", "EPOCH": "2025-12-12T21:56:50.444736", "MEAN_MOTION": 14.55097314, "ECCENTRICITY": 0.00108506, "INCLINATION": 86.3784, "RA_OF_ASC_NODE": 36.9152, "ARG_OF_PERICENTER": 29.0413, "MEAN_ANOMALY": 25.3657, "EPHEMERIS_TYPE": 0, "CLASSIFICATION_TYPE": "U", "NORAD_CAT_ID": 34690, "ELEMENT_SET_NO": 999, "REV_AT_EPOCH": 88097, "BSTAR": 0.0006877799, "MEAN_MOTION_DOT": 2.989e-05, "MEAN_MOTION_DDOT": 0}, "tle": {"line1": "1 34690U 97051KM  25346.91447274  .00002989  00000+0  68778-3 0  9998", "line2": "2 34690  86.3784  36.9152 0010850  29.0413  25.3657 14.55097314880978"}}, "geometry": {"type": "Point", "coordinates": [-141.44091354653995, -28.678551361043763]}}, {"type": "Feature", "properties": {"norad_id": 34693, "name": "IRIDIUM 33 DEB", "group": "iridium-33-debris", "lat": 30.885600890684543, "lon": 121.13334986992201, "alt_km": 481.02961995594706, "timestamp": "2025-12-13T16:48:33.094758+00:00", "meta": {"OBJECT_NAME": "IRIDIUM 33 DEB", "OBJECT_ID": "1997-051KQ", "EPOCH": "2025-12-12T21:33:47.712960", "MEAN_MOTION": 15.27980869, "ECCENTRICITY": 0.00139664, "INCLINATION": 86.3056, "RA_OF_ASC_NODE": 303.7467, "ARG_OF_PERICENTER": 52.9772, "MEAN_ANOMALY": 7.323, "EPHEMERIS_TYPE": 0, "CLASSIFICATION_TYPE": "U", "NORAD_CAT_ID": 34693, "ELEMENT_SET_NO": 999, "REV_AT_EPOCH": 88917, "BSTAR": 0.0063067576, "MEAN_MOTION_DOT": 0.00176337, "MEAN_MOTION_DDOT": 0}, "tle": {"line1": "1 34693U 97051KQ  25346.89846890  .00176337  00000+0  63068-2 0  9990", "line2": "2 34693  86.3056 303.7467 0013966  52.9772   7.3230 15.27980869889175"}}, "geometry": {"type": "Point", "coordinates": [121.13334986992201, 30.885600890684543]}}, {"type": "Feature", "properties": {"norad_id": 34696, "name": "IRIDIUM 33 DEB", "group": "iridium-33-debris", "lat": 20.950735438356215, "lon": 28.539540104840203, "alt_km": 718.1407197813905, "timestamp": "2025-12-13T16:48:33.094768+00:00", "meta": {"OBJECT_NAME": "IRIDIUM 33 DEB", "OBJECT_ID": "1997-051KT", "EPOCH": "2025-12-11T02:33:26.982720", "MEAN_MOTION": 14.64953116, "ECCENTRICITY": 0.00741481, "INCLINATION": 86.185, "RA_OF_ASC_NODE": 28.2818, "ARG_OF_PERICENTER": 173.0229, "MEAN_ANOMALY": 217.0787, "EPHEMERIS_TYPE": 0, "CLASSIFICATION_TYPE": "U", "NORAD_CAT_ID": 34696, "ELEMENT_SET_NO": 999, "REV_AT_EPOCH": 86649, "BSTAR": 0.0075396538, "MEAN_MOTION_DOT": 0.00042238, "MEAN_MOTION_DDOT": 0}, "tle": {"line1": "1 34696U 97051KT  25345.10656230  .00042238  00000+0  75397-2 0  9993", "line2": "2 34696  86.1850  28.2818 0074148 173.0229 217.0787 14.64953116866490"}}, "geometry": {"type": "Point", "coordinates": [28.539540104840203, 20.950735438356215]}}, {"type": "Feature", "properties": {"norad_id": 34765, "name": "IRIDIUM 33 DEB", "group": "iridium-33-debris", "lat": -6.866079763800799, "lon": -147.20868133708663, "alt_km": 750.5910900773142, "timestamp": "2025-12-13T16:48:33.094779+00:00", "meta": {"OBJECT_NAME": "IRIDIUM 33 DEB", "OBJECT_ID": "1997-051LJ", "EPOCH": "2025-12-12T22:10:07.180608", "MEAN_MOTION": 14.40466393, "ECCENTRICITY": 0.00154572, "INCLINATION": 86.3397, "RA_OF_ASC_NODE": 32.6828, "ARG_OF_PERICENTER": 210.8108, "MEAN_ANOMALY": 270.909, "EPHEMERIS_TYPE": 0, "CLASSIFICATION_TYPE": "U", "NORAD_CAT_ID": 34765, "ELEMENT_SET_NO": 999, "REV_AT_EPOCH": 87616, "BSTAR": 0.00063476555, "MEAN_MOTION_DOT": 2.039e-05, "MEAN_MOTION_DDOT": 0}, "tle": {"line1": "1 34765U 97051LJ  25346.92369422  .00002039  00000+0  63477-3 0  9997", "line2": "2 34765  86.3397  32.6828 0015457 210.8108 270.9090 14.40466393876169"}}, "geometry": {"type": "Point", "coordinates": [-147.20868133708663, -6.866079763800799]}}]}